ONEWEB-0403             
1 50483U 21132Q   25311.17887029  .00000027  00000+0  35703-4 0  9993
2 50483  87.9227  19.5450 0001718  97.8614 262.2713 13.18687228192330
ONEWEB-0404             
1 50484U 21132R   25310.77382942  .00000543  00000+0  14960-2 0  9996
2 50484  87.8851  65.3634 0001248  93.7531 266.3739 13.11418146186540
ONEWEB-0405             
1 50485U 21132S   25311.19371787  .00000155  00000+0  36072-3 0  9997
2 50485  87.9225  19.5259 0001771 110.8449 249.2873 13.18686871192737
ONEWEB-0406             
1 50486U 21132T   25311.18382066  .00000085  00000+0  18234-3 0  9991
2 50486  87.9228  19.5525 0001623  84.1113 276.0204 13.18687649192363
ONEWEB-0407             
1 50487U 21132U   25311.17722340  .00000062  00000+0  12486-3 0  9992
2 50487  87.9227  19.5379 0001965 103.6963 256.4388 13.18687024192305
ONEWEB-0409             
1 50488U 21132V   25310.61954452  .00000572  00000+0  15795-2 0  9993
2 50488  87.8864  65.3581 0001430  87.7234 272.4057 13.11415509186412
ONEWEB-0412             
1 50489U 21132W   25311.16566471  .00000073  00000+0  15366-3 0  9996
2 50489  87.9225  19.5527 0001825 112.2426 247.8900 13.18686809192398
ONEWEB-0413             
1 50490U 21132X   25311.17062185  .00000078  00000+0  16405-3 0  9992
2 50490  87.9220  19.5679 0001934 109.0567 251.0775 13.18686878192331
